{"type": "FeatureCollection", "features": [ {"type": "Feature", "properties": {"norad_id": 33917, "name": "COSMOS 2251 DEB", "group": "cosmos-2251-debris", "lat": -7.024818856408859, "lon": -72.390511745286, "alt_km": 770.8759512198185, "timestamp": "2025-12-22T23:36:21.109568+00:00", "meta": {"OBJECT_NAME": "COSMOS 2251 DEB", "OBJECT_ID": "1993-036DW", "EPOCH": "2025-12-22T01:38:30.207552", "MEAN_MOTION": 13.69378364, "ECCENTRICITY": 0.03312399, "INCLINATION": 74.1073, "RA_OF_ASC_NODE": 107.0977, "ARG_OF_PERICENTER": 206.0293, "MEAN_ANOMALY": 152.3844, "EPHEMERIS_TYPE": 0, "CLASSIFICATION_TYPE": "U", "NORAD_CAT_ID": 33917, "ELEMENT_SET_NO": 999, "REV_AT_EPOCH": 83861, "BSTAR": 0.000769663, "MEAN_MOTION_DOT": 9.61e-06, "MEAN_MOTION_DDOT": 0}, "tle": {"line1": "1 33917U 93036DW  25356.06840518  .00000961  00000+0  76966-3 0  9999", "line2": "2 33917  74.1073 107.0977 0331239 206.0293 152.3844 13.69378364838614"}}, "geometry": {"type": "Point", "coordinates": [-72.390511745286, -7.024818856408859]}}, {"type": "Feature", "properties": {"norad_id": 33920, "name": "COSMOS 2251 DEB", "group": "cosmos-2251-debris", "lat": -48.376152517346235, "lon": -99.7981569431213, "alt_km": 680.4943072606184, "timestamp": "2025-12-22T23:36:21.109578+00:00", "meta": {"OBJECT_NAME": "COSMOS 2251 DEB", "OBJECT_ID": "1993-036DZ", "EPOCH": "2025-12-21T05:02:03.425568", "MEAN_MOTION": 14.58395783, "ECCENTRICITY": 0.0037911, "INCLINATION": 74.0619, "RA_OF_ASC_NODE": 282.3307, "ARG_OF_PERICENTER": 287.7031, "MEAN_ANOMALY": 71.9996, "EPHEMERIS_TYPE": 0, "CLASSIFICATION_TYPE": "U", "NORAD_CAT_ID": 33920, "ELEMENT_SET_NO": 999, "REV_AT_EPOCH": 88238, "BSTAR": 0.0012071, "MEAN_MOTION_DOT": 5.624e-05, "MEAN_MOTION_DDOT": 0}, "tle": {"line1": "1 33920U 93036DZ  25355.20976187  .00005624  00000+0  12071-2 0  9997", "line2": "2 33920  74.0619 282.3307 0037911 287.7031  71.9996 14.58395783882383"}}, "geometry": {"type": "Point", "coordinates": [-99.7981569431213, -48.376152517346235]}}, {"type": "Feature", "properties": {"norad_id": 33922, "name": "COSMOS 2251 DEB", "group": "cosmos-2251-debris", "lat": 51.64751134457431, "lon": -72.63726093055453, "alt_km": 728.3143839682916, "timestamp": "2025-12-22T23:36:21.109589+00:00", "meta": {"OBJECT_NAME": "COSMOS 2251 DEB", "OBJECT_ID": "1993-036EB", "EPOCH": "2025-12-22T11:45:07.583904", "MEAN_MOTION": 14.49541488, "ECCENTRICITY": 0.00231623, "INCLINATION": 74.0469, "RA_OF_ASC_NODE": 129.4819, "ARG_OF_PERICENTER": 239.0175, "MEAN_ANOMALY": 190.1852, "EPHEMERIS_TYPE": 0, "CLASSIFICATION_TYPE": "U", "NORAD_CAT_ID": 33922, "ELEMENT_SET_NO": 999, "REV_AT_EPOCH": 88719, "BSTAR": 0.00045845999, "MEAN_MOTION_DOT": 1.737e-05, "MEAN_MOTION_DDOT": 0}, "tle": {"line1": "1 33922U 93036EB  25356.48967111  .00001737  00000+0  45846-3 0  9995", "line2": "2 33922  74.0469 129.4819 0023162 239.0175 190.1852 14.49541488887193"}}, "geometry": {"type": "Point", "coordinates": [-72.63726093055453, 51.64751134457431]}}, {"type": "Feature", "properties": {"norad_id": 33924, "name": "COSMOS 2251 DEB", "group": "cosmos-2251-debris", "lat": 1.7360960416798217, "lon": -105.76288510457353, "alt_km": 982.2902246412941, "timestamp": "2025-12-22T23:36:21.109600+00:00", "meta": {"OBJECT_NAME": "COSMOS 2251 DEB", "OBJECT_ID": "1993-036ED", "EPOCH": "2025-12-22T04:02:16.914048", "MEAN_MOTION": 13.50236718, "ECCENTRICITY": 0.04038609, "INCLINATION": 73.9133, "RA_OF_ASC_NODE": 255.046, "ARG_OF_PERICENTER": 288.8355, "MEAN_ANOMALY": 66.9363, "EPHEMERIS_TYPE": 0, "CLASSIFICATION_TYPE": "U", "NORAD_CAT_ID": 33924, "ELEMENT_SET_NO": 999, "REV_AT_EPOCH": 82866, "BSTAR": 0.00046627428, "MEAN_MOTION_DOT": 4.7e-06, "MEAN_MOTION_DDOT": 0}, "tle": {"line1": "1 33924U 93036ED  25356.16825132  .00000470  00000+0  46627-3 0  9999", "line2": "2 33924  73.9133 255.0460 0403860 288.8355  66.9363 13.50236718828660"}}, "geometry": {"type": "Point", "coordinates": [-105.76288510457353, 1.7360960416798217]}}, {"type": "Feature", "properties": {"norad_id": 33928, "name": "COSMOS 2251 DEB", "group": "cosmos-2251-debris", "lat": -65.22121802065573, "lon": -108.06519576853444, "alt_km": 728.871262880325, "timestamp": "2025-12-22T23:36:21.109610+00:00", "meta": {"OBJECT_NAME": "COSMOS 2251 DEB", "OBJECT_ID": "1993-036EH", "EPOCH": "2025-12-21T19:54:17.960256", "MEAN_MOTION": 14.47419923, "ECCENTRICITY": 0.0061901, "INCLINATION": 73.9254, "RA_OF_ASC_NODE": 35.4513, "ARG_OF_PERICENTER": 327.7005, "MEAN_ANOMALY": 32.0369, "EPHEMERIS_TYPE": 0, "CLASSIFICATION_TYPE": "U", "NORAD_CAT_ID": 33928, "ELEMENT_SET_NO": 999, "REV_AT_EPOCH": 88776, "BSTAR": 0.00020013352, "MEAN_MOTION_DOT": 7.22e-06, "MEAN_MOTION_DDOT": 0}, "tle": {"line1": "1 33928U 93036EH  25355.82937454  .00000722  00000+0  20013-3 0  9997", "line2": "2 33928  73.9254  35.4513 0061901 327.7005  32.0369 14.47419923887762"}}, "geometry": {"type": "Point", "coordinates": [-108.06519576853444, -65.22121802065573]}}, {"type": "Feature", "properties": {"norad_id": 33932, "name": "COSMOS 2251 DEB", "group": "cosmos-2251-debris", "lat": 65.1866367799045, "lon": -24.718272676059257, "alt_km": 742.9740811477759, "timestamp": "2025-12-22T23:36:21.109620+00:00", "meta": {"OBJECT_NAME": "COSMOS 2251 DEB", "OBJECT_ID": "1993-036EM", "EPOCH": "2025-12-22T06:35:34.167264", "MEAN_MOTION": 14.38784734, "ECCENTRICITY": 0.00358053, "INCLINATION": 74.0343, "RA_OF_ASC_NODE": 298.3313, "ARG_OF_PERICENTER": 12.1945, "MEAN_ANOMALY": 348.0068, "EPHEMERIS_TYPE": 0, "CLASSIFICATION_TYPE": "U", "NORAD_CAT_ID": 33932, "ELEMENT_SET_NO": 999, "REV_AT_EPOCH": 88135, "BSTAR": 0.00043503306, "MEAN_MOTION_DOT": 1.321e-05, "MEAN_MOTION_DDOT": 0}, "tle": {"line1": "1 33932U 93036EM  25356.27470101  .00001321  00000+0  43503-3 0  9998", "line2": "2 33932  74.0343 298.3313 0035805  12.1945 348.0068 14.38784734881358"}}, "geometry": {"type": "Point", "coordinates": [-24.718272676059257, 65.1866367799045]}}, {"type": "Feature", "properties": {"norad_id": 33933, "name": "COSMOS 2251 DEB", "group": "cosmos-2251-debris", "lat": 73.29108036519868, "lon": 113.31771708105782, "alt_km": 732.5261320871241, "timestamp": "2025-12-22T23:36:21.109631+00:00", "meta": {"OBJECT_NAME": "COSMOS 2251 DEB", "OBJECT_ID": "1993-036EN", "EPOCH": "2025-12-22T03:07:04.598112", "MEAN_MOTION": 14.33502685, "ECCENTRICITY": 0.00709368, "INCLINATION": 74.089, "RA_OF_ASC_NODE": 43.0225, "ARG_OF_PERICENTER": 48.6257, "MEAN_ANOMALY": 312.0964, "EPHEMERIS_TYPE": 0, "CLASSIFICATION_TYPE": "U", "NORAD_CAT_ID": 33933, "ELEMENT_SET_NO": 999, "REV_AT_EPOCH": 87919, "BSTAR": 0.00024125586, "MEAN_MOTION_DOT": 6.61e-06, "MEAN_MOTION_DDOT": 0}, "tle": {"line1": "1 33933U 93036EN  25356.12991433  .00000661  00000+0  24126-3 0  9995", "line2": "2 33933  74.0890  43.0225 0070936  48.6257 312.0964 14.33502685879190"}}, "geometry": {"type": "Point", "coordinates": [113.31771708105782, 73.29108036519868]}}, {"type": "Feature", "properties": {"norad_id": 33934, "name": "COSMOS 2251 DEB", "group": "cosmos-2251-debris", "lat": 61.4506800359824, "lon": 112.7939231864003, "alt_km": 697.5501293893058, "timestamp": "2025-12-22T23:36:21.109641+00:00", "meta": {"OBJECT_NAME": "COSMOS 2251 DEB", "OBJECT_ID": "1993-036EP", "EPOCH": "2025-12-22T06:50:57.393600", "MEAN_MOTION": 14.59182418, "ECCENTRICITY": 0.00152668, "INCLINATION": 74.0382, "RA_OF_ASC_NODE": 82.3842, "ARG_OF_PERICENTER": 206.0728, "MEAN_ANOMALY": 153.967, "EPHEMERIS_TYPE": 0, "CLASSIFICATION_TYPE": "U", "NORAD_CAT_ID": 33934, "ELEMENT_SET_NO": 999, "REV_AT_EPOCH": 88878, "BSTAR": 0.00084235612, "MEAN_MOTION_DOT": 3.95e-05, "MEAN_MOTION_DDOT": 0}, "tle": {"line1": "1 33934U 93036EP  25356.28538650  .00003950  00000+0  84236-3 0  9993", "line2": "2 33934  74.0382  82.3842 0015266 206.0728 153.9670 14.59182418888783"}}, "geometry": {"type": "Point", "coordinates": [112.7939231864003, 61.4506800359824]}}, {"type": "Feature", "properties": {"norad_id": 33936, "name": "COSMOS 2251 DEB", "group": "cosmos-2251-debris", "lat": 34.709553601839204, "lon": 29.355532521288954, "alt_km": 702.7784525960669, "timestamp": "2025-12-22T23:36:21.109652+00:00", "meta": {"OBJECT_NAME": "COSMOS 2251 DEB", "OBJECT_ID": "1993-036ER", "EPOCH": "2025-12-22T11:55:49.113408", "MEAN_MOTION": 14.60327001, "ECCENTRICITY": 0.00268824, "INCLINATION": 74.0177, "RA_OF_ASC_NODE": 18.8344, "ARG_OF_PERICENTER": 171.9613, "MEAN_ANOMALY": 188.199, "EPHEMERIS_TYPE": 0, "CLASSIFICATION_TYPE": "U", "NORAD_CAT_ID": 33936, "ELEMENT_SET_NO": 999, "REV_AT_EPOCH": 89032, "BSTAR": 0.00062408883, "MEAN_MOTION_DOT": 3.003e-05, "MEAN_MOTION_DDOT": 0}, "tle": {"line1": "1 33936U 93036ER  25356.49709622  .00003003  00000+0  62409-3 0  9994", "line2": "2 33936  74.0177  18.8344 0026882 171.9613 188.1990 14.60327001890326"}}, "geometry": {"type": "Point", "coordinates": [29.355532521288954, 34.709553601839204]}}, {"type": "Feature", "properties": {"norad_id": 33938, "name": "COSMOS 2251 DEB", "group": "cosmos-2251-debris", "lat": 62.21904802014889, "lon": -24.843542390391935, "alt_km": 740.5739363345665, "timestamp": "2025-12-22T23:36:21.109662+00:00", "meta": {"OBJECT_NAME": "COSMOS 2251 DEB", "OBJECT_ID": "1993-036ET", "EPOCH": "2025-12-22T13:13:29.474112", "MEAN_MOTION": 14.46821261, "ECCENTRICITY": 0.00168016, "INCLINATION": 74.0437, "RA_OF_ASC_NODE": 188.8579, "ARG_OF_PERICENTER": 270.1897, "MEAN_ANOMALY": 110.8812, "EPHEMERIS_TYPE": 0, "CLASSIFICATION_TYPE": "U", "NORAD_CAT_ID": 33938, "ELEMENT_SET_NO": 999, "REV_AT_EPOCH": 88542, "BSTAR": 0.00036349548, "MEAN_MOTION_DOT": 1.292e-05, "MEAN_MOTION_DDOT": 0}, "tle": {"line1": "1 33938U 93036ET  25356.55103558  .00001292  00000+0  36350-3 0  9993", "line2": "2 33938  74.0437 188.8579 0016801 270.1897 110.8812 14.46821261885422"}}, "geometry": {"type": "Point", "coordinates": [-24.843542390391935, 62.21904802014889]}}]}